IRIDIUM 39              
1 25042U 97069D   25363.44454914  .00001164  00000+0  29780-3 0  9998
2 25042  86.3931 127.4681 0018186  20.7895 339.4044 14.49532842477242
IRIDIUM 38              
1 25043U 97069E   25363.46578463  .00000788  00000+0  25264-3 0  9991
2 25043  86.3982 151.0748 0002918 133.8000 226.3440 14.38332112474029
IRIDIUM 42              
1 25077U 97077A   25363.50370007  .00000713  00000+0  23638-3 0  9997
2 25077  86.3988 157.4675 0002017 115.0197 245.1210 14.36548495469232
IRIDIUM 44              
1 25078U 97077B   25363.34735110  .00000615  00000+0  18738-3 0  9996
2 25078  86.3980 138.9475 0003919  99.3382 260.8260 14.40446984471797
IRIDIUM 45              
1 25104U 97082A   25363.26856534  .00048180  00000+0  13330-2 0  9998
2 25104  86.3543 312.5274 0093513 317.8860  41.5228 15.32432595481803
IRIDIUM 24              
1 25105U 97082B   25363.48313054  .00000744  00000+0  21926-3 0  9993
2 25105  86.3910 357.4462 0012476 143.5378 216.6674 14.42345112471364
IRIDIUM 51              
1 25262U 98018A   25362.90043005  .00143536  00000+0  13383-2 0  9993
2 25262  86.3722 317.9250 0046217 203.4905 156.4254 15.65498334477178
IRIDIUM 57              
1 25273U 98019B   25363.56481390  .00000506  00000+0  16713-3 0  9992
2 25273  86.3943  63.3321 0002257  97.0506 263.0947 14.36064739452820
